DIRECTV 14              
1 40333U 14078B   22231.20361564 -.00000132  00000+0  00000+0 0  9995
2 40333   0.0134 100.0440 0001082 121.7082  79.8458  1.00271076 28223
DIRECTV 15              
1 40663U 15026A   22231.20135262 -.00000109  00000+0  00000+0 0  9993
2 40663   0.0136 103.1997 0000513 268.5972 285.3417  1.00273135 26515
SKY MEXICO-1            
1 40664U 15026B   22230.84055894 -.00000241  00000+0  00000+0 0  9992
2 40664   0.0053 293.9132 0001957 228.4384  28.6531  1.00272937 26433
INTELSAT 34 (IS-34)     
1 40874U 15039A   22230.84518056 -.00000292  00000+0  00000+0 0  9999
2 40874   0.0355 307.8776 0000500  82.6612 185.4086  1.00270334 25601
INTELSAT 31 (IS-31)     
1 41581U 16035A   22230.83724532 -.00000157  00000+0  00000+0 0  9999
2 41581   0.0239 219.0564 0001229  18.8902 295.5610  1.00271017 22667
INTELSAT 36 (IS-36)     
1 41747U 16053A   22231.01716080 -.00000030  00000+0  00000+0 0  9993
2 41747   0.0140  75.4625 0002851 281.8871  44.6497  1.00269208 21926
INTELSAT 33E (IS-33E)   
1 41748U 16053B   22231.20188201  .00000043  00000+0  00000+0 0  9996
2 41748   0.0085  74.3285 0001734  92.0670 293.7843  1.00273110 22204
INTELSAT 32E (IS-32E)   
1 41945U 17007B   22231.10326983 -.00000275  00000+0  00000+0 0  9993
2 41945   0.0180 111.8968 0000153  16.8513 192.6736  1.00273563 20228
INTELSAT 35E (IS-35E)   
1 42818U 17041A   22231.09771823 -.00000244  00000+0  00000+0 0  9992
2 42818   0.0250 245.0184 0001579 272.1333 170.9411  1.00272525 18780
INTELSAT 37E (IS-37E)   
1 42950U 17059A   22231.10882694 -.00000147  00000+0  00000+0 0  9991
2 42950   0.0180 124.6165 0002538  31.7747 192.2116  1.00271657 18025
AZERSPACE 2 (IS-38)     
1 43632U 18074A   22230.77978456  .00000129  00000+0  00000+0 0  9990
2 43632   0.0157 108.1734 0001496  58.4898 126.2572  1.00273418 14421
HORIZONS-3E             
1 43633U 18074B   22230.88991435 -.00000037  00000+0  00000+0 0  9994
2 43633   0.0052 227.4539 0002019  73.6571 155.4629  1.00273048 14306
AT&T T-16               
1 44333U 19034A   22231.20285491 -.00000122  00000+0  00000+0 0  9999
2 44333   0.0071 153.4494 0000759 225.4776 280.7641  1.00273442 11611
INTELSAT 39 (IS-39)     
1 44476U 19049B   22230.88313111  .00000027  00000+0  00000+0 0  9990
2 44476   0.0142 121.2160 0000913 219.0880   6.7517  1.00272450 11120
GALAXY 30 (G-30)        
1 46114U 20056C   22231.18926017  .00000030  00000+0  00000+0 0  9994
2 46114   0.0131 128.8130 0002032  29.6999 112.1268  1.00272740  7389
