[{"OBJECT_NAME":"DIRECTV 14","OBJECT_ID":"2014-078B","EPOCH":"2022-08-19T04:53:12.391296","MEAN_MOTION":1.00271076,"ECCENTRICITY":0.0001082,"INCLINATION":0.0134,"RA_OF_ASC_NODE":100.044,"ARG_OF_PERICENTER":121.7082,"MEAN_ANOMALY":79.8458,"EPHEMERIS_TYPE":0,"CLASSIFICATION_TYPE":"U","NORAD_CAT_ID":40333,"ELEMENT_SET_NO":999,"REV_AT_EPOCH":2822,"BSTAR":0,"MEAN_MOTION_DOT":-1.32e-6,"MEAN_MOTION_DDOT":0},{"OBJECT_NAME":"DIRECTV 15","OBJECT_ID":"2015-026A","EPOCH":"2022-08-19T04:49:56.866368","MEAN_MOTION":1.00273135,"ECCENTRICITY":5.13e-5,"INCLINATION":0.0136,"RA_OF_ASC_NODE":103.1997,"ARG_OF_PERICENTER":268.5972,"MEAN_ANOMALY":285.3417,"EPHEMERIS_TYPE":0,"CLASSIFICATION_TYPE":"U","NORAD_CAT_ID":40663,"ELEMENT_SET_NO":999,"REV_AT_EPOCH":2651,"BSTAR":0,"MEAN_MOTION_DOT":-1.09e-6,"MEAN_MOTION_DDOT":0},{"OBJECT_NAME":"SKY MEXICO-1","OBJECT_ID":"2015-026B","EPOCH":"2022-08-18T20:10:24.292416","MEAN_MOTION":1.00272937,"ECCENTRICITY":0.0001957,"INCLINATION":0.0053,"RA_OF_ASC_NODE":293.9132,"ARG_OF_PERICENTER":228.4384,"MEAN_ANOMALY":28.6531,"EPHEMERIS_TYPE":0,"CLASSIFICATION_TYPE":"U","NORAD_CAT_ID":40664,"ELEMENT_SET_NO":999,"REV_AT_EPOCH":2643,"BSTAR":0,"MEAN_MOTION_DOT":-2.41e-6,"MEAN_MOTION_DDOT":0},{"OBJECT_NAME":"INTELSAT 34 (IS-34)","OBJECT_ID":"2015-039A","EPOCH":"2022-08-18T20:17:03.600384","MEAN_MOTION":1.00270334,"ECCENTRICITY":5.0e-5,"INCLINATION":0.0355,"RA_OF_ASC_NODE":307.8776,"ARG_OF_PERICENTER":82.6612,"MEAN_ANOMALY":185.4086,"EPHEMERIS_TYPE":0,"CLASSIFICATION_TYPE":"U","NORAD_CAT_ID":40874,"ELEMENT_SET_NO":999,"REV_AT_EPOCH":2560,"BSTAR":0,"MEAN_MOTION_DOT":-2.92e-6,"MEAN_MOTION_DDOT":0},{"OBJECT_NAME":"INTELSAT 31 (IS-31)","OBJECT_ID":"2016-035A","EPOCH":"2022-08-18T20:05:37.995648","MEAN_MOTION":1.00271017,"ECCENTRICITY":0.0001229,"INCLINATION":0.0239,"RA_OF_ASC_NODE":219.0564,"ARG_OF_PERICENTER":18.8902,"MEAN_ANOMALY":295.561,"EPHEMERIS_TYPE":0,"CLASSIFICATION_TYPE":"U","NORAD_CAT_ID":41581,"ELEMENT_SET_NO":999,"REV_AT_EPOCH":2266,"BSTAR":0,"MEAN_MOTION_DOT":-1.57e-6,"MEAN_MOTION_DDOT":0},{"OBJECT_NAME":"INTELSAT 36 (IS-36)","OBJECT_ID":"2016-053A","EPOCH":"2022-08-19T00:24:42.693120","MEAN_MOTION":1.00269208,"ECCENTRICITY":0.0002851,"INCLINATION":0.014,"RA_OF_ASC_NODE":75.4625,"ARG_OF_PERICENTER":281.8871,"MEAN_ANOMALY":44.6497,"EPHEMERIS_TYPE":0,"CLASSIFICATION_TYPE":"U","NORAD_CAT_ID":41747,"ELEMENT_SET_NO":999,"REV_AT_EPOCH":2192,"BSTAR":0,"MEAN_MOTION_DOT":-3.0e-7,"MEAN_MOTION_DDOT":0},{"OBJECT_NAME":"INTELSAT 33E (IS-33E)","OBJECT_ID":"2016-053B","EPOCH":"2022-08-19T04:50:42.605664","MEAN_MOTION":1.0027311,"ECCENTRICITY":0.0001734,"INCLINATION":0.0085,"RA_OF_ASC_NODE":74.3285,"ARG_OF_PERICENTER":92.067,"MEAN_ANOMALY":293.7843,"EPHEMERIS_TYPE":0,"CLASSIFICATION_TYPE":"U","NORAD_CAT_ID":41748,"ELEMENT_SET_NO":999,"REV_AT_EPOCH":2220,"BSTAR":0,"MEAN_MOTION_DOT":4.3e-7,"MEAN_MOTION_DDOT":0},{"OBJECT_NAME":"INTELSAT 32E (IS-32E)","OBJECT_ID":"2017-007B","EPOCH":"2022-08-19T02:28:42.513312","MEAN_MOTION":1.00273563,"ECCENTRICITY":1.53e-5,"INCLINATION":0.018,"RA_OF_ASC_NODE":111.8968,"ARG_OF_PERICENTER":16.8513,"MEAN_ANOMALY":192.6736,"EPHEMERIS_TYPE":0,"CLASSIFICATION_TYPE":"U","NORAD_CAT_ID":41945,"ELEMENT_SET_NO":999,"REV_AT_EPOCH":2022,"BSTAR":0,"MEAN_MOTION_DOT":-2.75e-6,"MEAN_MOTION_DDOT":0},{"OBJECT_NAME":"INTELSAT 35E (IS-35E)","OBJECT_ID":"2017-041A","EPOCH":"2022-08-19T02:20:42.855072","MEAN_MOTION":1.00272525,"ECCENTRICITY":0.0001579,"INCLINATION":0.025,"RA_OF_ASC_NODE":245.0184,"ARG_OF_PERICENTER":272.1333,"MEAN_ANOMALY":170.9411,"EPHEMERIS_TYPE":0,"CLASSIFICATION_TYPE":"U","NORAD_CAT_ID":42818,"ELEMENT_SET_NO":999,"REV_AT_EPOCH":1878,"BSTAR":0,"MEAN_MOTION_DOT":-2.44e-6,"MEAN_MOTION_DDOT":0},{"OBJECT_NAME":"INTELSAT 37E (IS-37E)","OBJECT_ID":"2017-059A","EPOCH":"2022-08-19T02:36:42.647616","MEAN_MOTION":1.00271657,"ECCENTRICITY":0.0002538,"INCLINATION":0.018,"RA_OF_ASC_NODE":124.6165,"ARG_OF_PERICENTER":31.7747,"MEAN_ANOMALY":192.2116,"EPHEMERIS_TYPE":0,"CLASSIFICATION_TYPE":"U","NORAD_CAT_ID":42950,"ELEMENT_SET_NO":999,"REV_AT_EPOCH":1802,"BSTAR":0,"MEAN_MOTION_DOT":-1.47e-6,"MEAN_MOTION_DDOT":0},{"OBJECT_NAME":"AZERSPACE 2 (IS-38)","OBJECT_ID":"2018-074A","EPOCH":"2022-08-18T18:42:53.385984","MEAN_MOTION":1.00273418,"ECCENTRICITY":0.0001496,"INCLINATION":0.0157,"RA_OF_ASC_NODE":108.1734,"ARG_OF_PERICENTER":58.4898,"MEAN_ANOMALY":126.2572,"EPHEMERIS_TYPE":0,"CLASSIFICATION_TYPE":"U","NORAD_CAT_ID":43632,"ELEMENT_SET_NO":999,"REV_AT_EPOCH":1442,"BSTAR":0,"MEAN_MOTION_DOT":1.29e-6,"MEAN_MOTION_DDOT":0},{"OBJECT_NAME":"HORIZONS-3E","OBJECT_ID":"2018-074B","EPOCH":"2022-08-18T21:21:28.599840","MEAN_MOTION":1.00273048,"ECCENTRICITY":0.0002019,"INCLINATION":0.0052,"RA_OF_ASC_NODE":227.4539,"ARG_OF_PERICENTER":73.6571,"MEAN_ANOMALY":155.4629,"EPHEMERIS_TYPE":0,"CLASSIFICATION_TYPE":"U","NORAD_CAT_ID":43633,"ELEMENT_SET_NO":999,"REV_AT_EPOCH":1430,"BSTAR":0,"MEAN_MOTION_DOT":-3.7e-7,"MEAN_MOTION_DDOT":0},{"OBJECT_NAME":"AT&T T-16","OBJECT_ID":"2019-034A","EPOCH":"2022-08-19T04:52:06.664224","MEAN_MOTION":1.00273442,"ECCENTRICITY":7.59e-5,"INCLINATION":0.0071,"RA_OF_ASC_NODE":153.4494,"ARG_OF_PERICENTER":225.4776,"MEAN_ANOMALY":280.7641,"EPHEMERIS_TYPE":0,"CLASSIFICATION_TYPE":"U","NORAD_CAT_ID":44333,"ELEMENT_SET_NO":999,"REV_AT_EPOCH":1161,"BSTAR":0,"MEAN_MOTION_DOT":-1.22e-6,"MEAN_MOTION_DDOT":0},{"OBJECT_NAME":"INTELSAT 39 (IS-39)","OBJECT_ID":"2019-049B","EPOCH":"2022-08-18T21:11:42.527904","MEAN_MOTION":1.0027245,"ECCENTRICITY":9.13e-5,"INCLINATION":0.0142,"RA_OF_ASC_NODE":121.216,"ARG_OF_PERICENTER":219.088,"MEAN_ANOMALY":6.7517,"EPHEMERIS_TYPE":0,"CLASSIFICATION_TYPE":"U","NORAD_CAT_ID":44476,"ELEMENT_SET_NO":999,"REV_AT_EPOCH":1112,"BSTAR":0,"MEAN_MOTION_DOT":2.7e-7,"MEAN_MOTION_DDOT":0},{"OBJECT_NAME":"GALAXY 30 (G-30)","OBJECT_ID":"2020-056C","EPOCH":"2022-08-19T04:32:32.078688","MEAN_MOTION":1.0027274,"ECCENTRICITY":0.0002032,"INCLINATION":0.0131,"RA_OF_ASC_NODE":128.813,"ARG_OF_PERICENTER":29.6999,"MEAN_ANOMALY":112.1268,"EPHEMERIS_TYPE":0,"CLASSIFICATION_TYPE":"U","NORAD_CAT_ID":46114,"ELEMENT_SET_NO":999,"REV_AT_EPOCH":738,"BSTAR":0,"MEAN_MOTION_DOT":3.0e-7,"MEAN_MOTION_DDOT":0}]